{"spkid": "50673156", "covariance": {"data": [["1.063836713515015E-15", "-2.236960352037038E-15", "4.668377641746966E-13", "1.886723993292201E-13", "9.789591592835457E-14", "-8.271348406661309E-14"], ["-2.236960352037038E-15", "6.685327310931117E-15", "-4.963534262139816E-13", "-4.014226245224758E-13", "2.241578997860912E-13", "1.662874697509282E-13"], ["4.668377641746966E-13", "-4.963534262139816E-13", "7.305184495332004E-10", "2.463617489346792E-10", "2.219635969419087E-10", "-1.176624319670962E-10"], ["1.886723993292201E-13", "-4.014226245224758E-13", "2.463617489346792E-10", "1.261245826552345E-9", "-1.009021635802578E-9", "-3.272749596956319E-10"], ["9.789591592835457E-14", "2.241578997860912E-13", "2.219635969419087E-10", "-1.009021635802578E-9", "1.103381208174537E-9", "2.282661375863093E-10"], ["-8.271348406661309E-14", "1.662874697509282E-13", "-1.176624319670962E-10", "-3.272749596956319E-10", "2.282661375863093E-10", "1.417140137488853E-10"]], "elements": [{"units": null, "title": "eccentricity", "value": ".6402578171007842", "sigma": 3.2616509830376e-08, "name": "e", "label": "e"}, {"label": "q", "sigma": 8.1763850881249e-08, "name": "q", "value": ".9481612526553548", "title": "perihelion distance", "units": "au"}, {"sigma": 2.70281048083879e-05, "name": "tp", "units": "TDB", "value": "2456730.735456226170", "title": "time of perihelion passage", "label": "tp"}, {"name": "om", "sigma": 3.55140229564653e-05, "units": "deg", "title": "longitude of the ascending node", "value": "131.0045147409162", "label": "node"}, {"label": "peri", "title": "argument of perihelion", "value": "37.2552999497259", "units": "deg", "name": "w", "sigma": 3.32171824237779e-05}, {"label": "i", "title": "inclination", "value": "25.57546368821619", "units": "deg", "sigma": 1.19043695233677e-05, "name": "i"}], "labels": ["e", "q", "tp", "node", "peri", "i"], "epoch": "2457486.5"}, "elements": [{"value": ".6418269171082035", "title": "eccentricity", "units": null, "sigma": "3.2846E-8", "name": "e", "label": "e"}, {"title": "semi-major axis", "value": "2.631270250810146", "units": "au", "sigma": "1.358E-7", "name": "a", "label": "a"}, {"label": "q", "units": "au", "value": ".9424501776541407", "title": "perihelion distance", "sigma": "7.9933E-8", "name": "q"}, {"label": "i", "name": "i", "sigma": "1.1907E-5", "units": "deg", "title": "inclination; angle with respect to x-y ecliptic plane", "value": "25.5913526070742"}, {"title": "longitude of the ascending node", "value": "130.9713988132207", "units": "deg", "name": "om", "sigma": "3.5553E-5", "label": "node"}, {"units": "deg", "value": "37.2257418692848", "title": "argument of perihelion", "sigma": "3.3214E-5", "name": "w", "label": "peri"}, {"name": "ma", "sigma": "8.2222E-5", "title": "mean anomaly", "value": "310.8659763405867", "units": "deg", "label": "M"}, {"units": "TDB", "value": "2461413.277861695648", "title": "time of perihelion passage", "sigma": ".00037252", "name": "tp", "label": "tp"}, {"label": "period", "title": "sidereal orbital period", "value": "1559.001777289977", "units": "d", "name": "per", "sigma": ".00012069"}, {"title": "mean motion", "value": ".2309169914006066", "units": "deg/d", "sigma": "1.7876E-8", "name": "n", "label": "n"}, {"title": "aphelion distance", "value": "4.320090323966152", "units": "au", "name": "ad", "sigma": "2.2295E-7", "label": "Q"}], "epoch": "2461200.5"}